{"type": "FeatureCollection", "features": [ {"type": "Feature", "properties": {"norad_id": 36258, "name": "FENGYUN 1C DEB", "group": "fengyun-1c-debris", "lat": 71.64564788584593, "lon": -13.513223976942639, "alt_km": 565.8469407917137, "timestamp": "2025-12-11T22:43:47.557213+00:00", "meta": {"OBJECT_NAME": "FENGYUN 1C DEB", "OBJECT_ID": "1999-025DWK", "EPOCH": "2025-12-11T07:44:28.037472", "MEAN_MOTION": 14.74838195, "ECCENTRICITY": 0.01735534, "INCLINATION": 99.0879, "RA_OF_ASC_NODE": 14.632, "ARG_OF_PERICENTER": 130.0667, "MEAN_ANOMALY": 231.5906, "EPHEMERIS_TYPE": 0, "CLASSIFICATION_TYPE": "U", "NORAD_CAT_ID": 36258, "ELEMENT_SET_NO": 999, "REV_AT_EPOCH": 90801, "BSTAR": 0.00051236184, "MEAN_MOTION_DOT": 4.311e-05, "MEAN_MOTION_DDOT": 0}, "tle": {"line1": "1 36258U 99025DWK 25345.32254673  .00004311  00000+0  51236-3 0  9998", "line2": "2 36258  99.0879  14.6320 0173553 130.0667 231.5906 14.74838195908015"}}, "geometry": {"type": "Point", "coordinates": [-13.513223976942639, 71.64564788584593]}}, {"type": "Feature", "properties": {"norad_id": 36260, "name": "FENGYUN 1C DEB", "group": "fengyun-1c-debris", "lat": 36.359285333045165, "lon": -18.293641881214697, "alt_km": 847.2846554399566, "timestamp": "2025-12-11T22:43:47.557224+00:00", "meta": {"OBJECT_NAME": "FENGYUN 1C DEB", "OBJECT_ID": "1999-025DWM", "EPOCH": "2025-12-11T10:40:46.930368", "MEAN_MOTION": 14.15371689, "ECCENTRICITY": 0.0014965, "INCLINATION": 98.6615, "RA_OF_ASC_NODE": 347.6617, "ARG_OF_PERICENTER": 253.4833, "MEAN_ANOMALY": 106.4697, "EPHEMERIS_TYPE": 0, "CLASSIFICATION_TYPE": "U", "NORAD_CAT_ID": 36260, "ELEMENT_SET_NO": 999, "REV_AT_EPOCH": 87790, "BSTAR": 0.00027549941, "MEAN_MOTION_DOT": 4.95e-06, "MEAN_MOTION_DDOT": 0}, "tle": {"line1": "1 36260U 99025DWM 25345.44498762  .00000495  00000+0  27550-3 0  9994", "line2": "2 36260  98.6615 347.6617 0014965 253.4833 106.4697 14.15371689877900"}}, "geometry": {"type": "Point", "coordinates": [-18.293641881214697, 36.359285333045165]}}, {"type": "Feature", "properties": {"norad_id": 36261, "name": "FENGYUN 1C DEB", "group": "fengyun-1c-debris", "lat": -7.976786584921358, "lon": -120.33955427707222, "alt_km": 1060.6118446781102, "timestamp": "2025-12-11T22:43:47.557247+00:00", "meta": {"OBJECT_NAME": "FENGYUN 1C DEB", "OBJECT_ID": "1999-025DWN", "EPOCH": "2025-12-10T12:51:44.703648", "MEAN_MOTION": 13.45476909, "ECCENTRICITY": 0.0355433, "INCLINATION": 101.3651, "RA_OF_ASC_NODE": 236.4477, "ARG_OF_PERICENTER": 80.3414, "MEAN_ANOMALY": 283.7668, "EPHEMERIS_TYPE": 0, "CLASSIFICATION_TYPE": "U", "NORAD_CAT_ID": 36261, "ELEMENT_SET_NO": 999, "REV_AT_EPOCH": 84403, "BSTAR": 0.00073435, "MEAN_MOTION_DOT": 5.84e-06, "MEAN_MOTION_DDOT": 0}, "tle": {"line1": "1 36261U 99025DWN 25344.53593407  .00000584  00000+0  73435-3 0  9998", "line2": "2 36261 101.3651 236.4477 0355433  80.3414 283.7668 13.45476909844030"}}, "geometry": {"type": "Point", "coordinates": [-120.33955427707222, -7.976786584921358]}}, {"type": "Feature", "properties": {"norad_id": 36262, "name": "FENGYUN 1C DEB", "group": "fengyun-1c-debris", "lat": 24.47057514622205, "lon": 50.549810685267786, "alt_km": 821.4978864567547, "timestamp": "2025-12-11T22:43:47.557258+00:00", "meta": {"OBJECT_NAME": "FENGYUN 1C DEB", "OBJECT_ID": "1999-025DWP", "EPOCH": "2025-12-08T09:54:26.531712", "MEAN_MOTION": 14.27796215, "ECCENTRICITY": 0.00599528, "INCLINATION": 98.9618, "RA_OF_ASC_NODE": 222.8075, "ARG_OF_PERICENTER": 288.1373, "MEAN_ANOMALY": 71.3285, "EPHEMERIS_TYPE": 0, "CLASSIFICATION_TYPE": "U", "NORAD_CAT_ID": 36262, "ELEMENT_SET_NO": 999, "REV_AT_EPOCH": 89435, "BSTAR": 0.0005578287, "MEAN_MOTION_DOT": 1.358e-05, "MEAN_MOTION_DDOT": 0}, "tle": {"line1": "1 36262U 99025DWP 25342.41280708  .00001358  00000+0  55783-3 0  9997", "line2": "2 36262  98.9618 222.8075 0059952 288.1373  71.3285 14.27796215894359"}}, "geometry": {"type": "Point", "coordinates": [50.549810685267786, 24.47057514622205]}}, {"type": "Feature", "properties": {"norad_id": 36263, "name": "FENGYUN 1C DEB", "group": "fengyun-1c-debris", "lat": -79.36218828328344, "lon": -75.52174489615668, "alt_km": 721.7397869030301, "timestamp": "2025-12-11T22:43:47.557269+00:00", "meta": {"OBJECT_NAME": "FENGYUN 1C DEB", "OBJECT_ID": "1999-025DWQ", "EPOCH": "2025-12-11T09:49:43.311648", "MEAN_MOTION": 14.456173, "ECCENTRICITY": 0.00362114, "INCLINATION": 98.9987, "RA_OF_ASC_NODE": 226.3791, "ARG_OF_PERICENTER": 269.226, "MEAN_ANOMALY": 90.478, "EPHEMERIS_TYPE": 0, "CLASSIFICATION_TYPE": "U", "NORAD_CAT_ID": 36263, "ELEMENT_SET_NO": 999, "REV_AT_EPOCH": 87966, "BSTAR": 0.0037241412, "MEAN_MOTION_DOT": 0.00013243, "MEAN_MOTION_DDOT": 0}, "tle": {"line1": "1 36263U 99025DWQ 25345.40952907  .00013243  00000+0  37241-2 0  9991", "line2": "2 36263  98.9987 226.3791 0036211 269.2260  90.4780 14.45617300879667"}}, "geometry": {"type": "Point", "coordinates": [-75.52174489615668, -79.36218828328344]}}, {"type": "Feature", "properties": {"norad_id": 36267, "name": "FENGYUN 1C DEB", "group": "fengyun-1c-debris", "lat": -58.42901739428211, "lon": 99.19015906927052, "alt_km": 787.5205374032785, "timestamp": "2025-12-11T22:43:47.557279+00:00", "meta": {"OBJECT_NAME": "FENGYUN 1C DEB", "OBJECT_ID": "1999-025DWU", "EPOCH": "2025-12-11T08:41:27.655296", "MEAN_MOTION": 14.09091758, "ECCENTRICITY": 0.01263004, "INCLINATION": 98.5598, "RA_OF_ASC_NODE": 292.8218, "ARG_OF_PERICENTER": 214.5137, "MEAN_ANOMALY": 298.6282, "EPHEMERIS_TYPE": 0, "CLASSIFICATION_TYPE": "U", "NORAD_CAT_ID": 36267, "ELEMENT_SET_NO": 999, "REV_AT_EPOCH": 86510, "BSTAR": 0.0016467639, "MEAN_MOTION_DOT": 3.034e-05, "MEAN_MOTION_DDOT": 0}, "tle": {"line1": "1 36267U 99025DWU 25345.36212564  .00003034  00000+0  16468-2 0  9993", "line2": "2 36267  98.5598 292.8218 0126300 214.5137 298.6282 14.09091758865108"}}, "geometry": {"type": "Point", "coordinates": [99.19015906927052, -58.42901739428211]}}, {"type": "Feature", "properties": {"norad_id": 36269, "name": "FENGYUN 1C DEB", "group": "fengyun-1c-debris", "lat": -58.02113983374612, "lon": -57.23884374636526, "alt_km": 649.6399572768087, "timestamp": "2025-12-11T22:43:47.557289+00:00", "meta": {"OBJECT_NAME": "FENGYUN 1C DEB", "OBJECT_ID": "1999-025DWW", "EPOCH": "2025-12-09T13:47:06.134784", "MEAN_MOTION": 14.27013295, "ECCENTRICITY": 0.0233384, "INCLINATION": 99.1074, "RA_OF_ASC_NODE": 285.4023, "ARG_OF_PERICENTER": 288.9499, "MEAN_ANOMALY": 68.6519, "EPHEMERIS_TYPE": 0, "CLASSIFICATION_TYPE": "U", "NORAD_CAT_ID": 36269, "ELEMENT_SET_NO": 999, "REV_AT_EPOCH": 87671, "BSTAR": 0.0013246, "MEAN_MOTION_DOT": 4.249e-05, "MEAN_MOTION_DDOT": 0}, "tle": {"line1": "1 36269U 99025DWW 25343.57437656  .00004249  00000+0  13246-2 0  9997", "line2": "2 36269  99.1074 285.4023 0233384 288.9499  68.6519 14.27013295876712"}}, "geometry": {"type": "Point", "coordinates": [-57.23884374636526, -58.02113983374612]}}, {"type": "Feature", "properties": {"norad_id": 36272, "name": "FENGYUN 1C DEB", "group": "fengyun-1c-debris", "lat": 53.56837242307315, "lon": -150.38073928552052, "alt_km": 927.1559105489996, "timestamp": "2025-12-11T22:43:47.557299+00:00", "meta": {"OBJECT_NAME": "FENGYUN 1C DEB", "OBJECT_ID": "1999-025DWZ", "EPOCH": "2025-12-11T08:54:52.780608", "MEAN_MOTION": 14.17247938, "ECCENTRICITY": 0.01679178, "INCLINATION": 99.1372, "RA_OF_ASC_NODE": 221.6218, "ARG_OF_PERICENTER": 272.0385, "MEAN_ANOMALY": 86.1567, "EPHEMERIS_TYPE": 0, "CLASSIFICATION_TYPE": "U", "NORAD_CAT_ID": 36272, "ELEMENT_SET_NO": 999, "REV_AT_EPOCH": 63597, "BSTAR": 0.00082726779, "MEAN_MOTION_DOT": 1.87e-05, "MEAN_MOTION_DDOT": 0}, "tle": {"line1": "1 36272U 99025DWZ 25345.37144422  .00001870  00000+0  82727-3 0  9995", "line2": "2 36272  99.1372 221.6218 0167917 272.0385  86.1567 14.17247938635972"}}, "geometry": {"type": "Point", "coordinates": [-150.38073928552052, 53.56837242307315]}}, {"type": "Feature", "properties": {"norad_id": 36273, "name": "FENGYUN 1C DEB", "group": "fengyun-1c-debris", "lat": 39.492854799476326, "lon": -152.68443887630045, "alt_km": 788.1536162115499, "timestamp": "2025-12-11T22:43:47.557310+00:00", "meta": {"OBJECT_NAME": "FENGYUN 1C DEB", "OBJECT_ID": "1999-025DXA", "EPOCH": "2025-12-10T21:07:00.418080", "MEAN_MOTION": 14.16564043, "ECCENTRICITY": 0.0096501, "INCLINATION": 99.6045, "RA_OF_ASC_NODE": 214.1863, "ARG_OF_PERICENTER": 353.8475, "MEAN_ANOMALY": 6.1504, "EPHEMERIS_TYPE": 0, "CLASSIFICATION_TYPE": "U", "NORAD_CAT_ID": 36273, "ELEMENT_SET_NO": 999, "REV_AT_EPOCH": 66207, "BSTAR": 0.00042955, "MEAN_MOTION_DOT": 8.45e-06, "MEAN_MOTION_DDOT": 0}, "tle": {"line1": "1 36273U 99025DXA 25344.87986595  .00000845  00000+0  42955-3 0  9995", "line2": "2 36273  99.6045 214.1863 0096501 353.8475   6.1504 14.16564043662078"}}, "geometry": {"type": "Point", "coordinates": [-152.68443887630045, 39.492854799476326]}}, {"type": "Feature", "properties": {"norad_id": 36274, "name": "FENGYUN 1C DEB", "group": "fengyun-1c-debris", "lat": 33.603953282618086, "lon": 53.935088615872296, "alt_km": 854.0102544541633, "timestamp": "2025-12-11T22:43:47.557320+00:00", "meta": {"OBJECT_NAME": "FENGYUN 1C DEB", "OBJECT_ID": "1999-025DXB", "EPOCH": "2025-12-09T11:35:55.514688", "MEAN_MOTION": 14.23402311, "ECCENTRICITY": 0.00622561, "INCLINATION": 99.139, "RA_OF_ASC_NODE": 57.5181, "ARG_OF_PERICENTER": 239.4806, "MEAN_ANOMALY": 136.1937, "EPHEMERIS_TYPE": 0, "CLASSIFICATION_TYPE": "U", "NORAD_CAT_ID": 36274, "ELEMENT_SET_NO": 999, "REV_AT_EPOCH": 62939, "BSTAR": 0.0044809329, "MEAN_MOTION_DOT": 0.00010342, "MEAN_MOTION_DDOT": 0}, "tle": {"line1": "1 36274U 99025DXB 25343.48328142  .00010342  00000+0  44809-2 0  9992", "line2": "2 36274  99.1390  57.5181 0062256 239.4806 136.1937 14.23402311629395"}}, "geometry": {"type": "Point", "coordinates": [53.935088615872296, 33.603953282618086]}}]}